NOAA 1 [-]              
1 04793U 70106A   22243.15462686 -.00000032  00000+0  72689-4 0  9999
2 04793 101.5510 305.0661 0031790 176.2339 240.5135 12.54007170366956
NOAA 2 (ITOS-D) [-]     
1 06235U 72082A   22243.90298630 -.00000033  00000+0  84863-4 0  9994
2 06235 101.9595 226.6225 0003740 295.3357 119.2958 12.53150839281420
NOAA 3 [-]              
1 06920U 73086A   22243.48847066 -.00000038  00000+0  58505-4 0  9995
2 06920 102.2134 225.2611 0006501 148.8537 327.0350 12.40347901210283
NOAA 4 [-]              
1 07529U 74089A   22244.46220253 -.00000041  00000+0  33925-4 0  9990
2 07529 101.9200 224.3387 0008877 321.4866 190.3090 12.53159675186312
NOAA 5 [-]              
1 09057U 76077A   22243.49461108 -.00000017  00000+0  21240-3 0  9994
2 09057 102.1049 210.7008 0010149   3.0767 113.6927 12.37773871 83024
TIROS N [-]             
1 11060U 78096A   22244.17931871  .00000055  00000+0  47463-4 0  9996
2 11060  98.6292 295.8926 0009504 286.9632  73.0502 14.18408283482584
NOAA 6 [-]              
1 11416U 79057A   22243.91096408  .00000093  00000+0  49427-4 0  9992
2 11416  98.6648 254.8849 0011081  41.4289 318.7734 14.33789533252339
NOAA 7 [-]              
1 12553U 81059A   22243.69573272 -.00000023  00000+0  11212-4 0  9999
2 12553  98.9931 289.0243 0010491 261.0330  98.9657 14.17341307128450
NOAA 8 [-]              
1 13923U 83022A   22243.98640083  .00000044  00000+0  34947-4 0  9992
2 13923  98.6921 234.2526 0015004 353.1918   6.9057 14.28826297 53452
NOAA 9 [-]              
1 15427U 84123A   22243.90431127  .00000044  00000+0  45333-4 0  9996
2 15427  99.0524 217.4974 0014147 314.9589  98.9562 14.16218188947526
NOAA 10 [-]             
1 16969U 86073A   22243.90330810  .00000035  00000+0  31259-4 0  9993
2 16969  98.5738 228.6879 0013411  91.0960 325.4975 14.28216247871604
NOAA 11 [-]             
1 19531U 88089A   22243.91610947  .00000008  00000+0  25312-4 0  9996
2 19531  98.4302 228.8713 0010483 326.7734  33.2782 14.15319477751499
NOAA 12 [-]             
1 21263U 91032A   22243.92096861  .00000009  00000+0  21470-4 0  9999
2 21263  98.5177 241.6379 0014726 116.3888 243.8806 14.26006660627489
NOAA 13 [-]             
1 22739U 93050A   22243.86842363  .00000049  00000+0  48228-4 0  9993
2 22739  98.5114 219.9313 0010449 123.2643 236.9533 14.12857582497701
NOAA 14 [-]             
1 23455U 94089A   22243.83411803  .00000003  00000+0  22898-4 0  9995
2 23455  98.4453 266.4520 0010638 106.1528 254.0818 14.14206394427364
NOAA 15 [B]             
1 25338U 98030A   22244.54190120  .00000105  00000+0  61974-4 0  9993
2 25338  98.6404 273.0678 0011503  77.8859 282.3610 14.26166205264110
NOAA 16 [-]             
1 26536U 00055A   22243.86398533  .00000012  00000+0  28918-4 0  9994
2 26536  98.6301 300.1416 0009632 314.7662  45.2727 14.13340197428009
NOAA 17 [-]             
1 27453U 02032A   22244.18805902  .00000035  00000+0  33673-4 0  9998
2 27453  98.6754 188.5797 0012843  54.7986 305.4394 14.25136874 49657
NOAA 18 [B]             
1 28654U 05018A   22244.48256504  .00000137  00000+0  97876-4 0  9998
2 28654  98.9441 314.8415 0015285 115.6212 244.6541 14.12770098890807
NOAA 19 [+]             
1 33591U 09005A   22244.49242825  .00000102  00000+0  80027-4 0  9998
2 33591  99.1431 280.2082 0013434 338.4477  21.6127 14.12604067699186
SUOMI NPP [+]           
1 37849U 11061A   22244.54628396  .00000045  00000+0  42001-4 0  9996
2 37849  98.7345 182.0516 0001251  82.4157  34.6385 14.19540520561987
NOAA 20 [+]             
1 43013U 17073A   22244.48738665  .00000034  00000+0  36798-4 0  9993
2 43013  98.7184 181.8612 0001019 113.1102 247.0181 14.19540569248019
